{"type": "FeatureCollection", "features": [ {"type": "Feature", "properties": {"norad_id": 33841, "name": "COSMOS 2251 DEB", "group": "cosmos-2251-debris", "lat": 12.266770875803354, "lon": -81.44692368633352, "alt_km": 752.4531134599265, "timestamp": "2025-12-14T09:36:23.430886+00:00", "meta": {"OBJECT_NAME": "COSMOS 2251 DEB", "OBJECT_ID": "1993-036CJ", "EPOCH": "2025-12-13T12:23:02.055264", "MEAN_MOTION": 14.37862907, "ECCENTRICITY": 0.00205775, "INCLINATION": 74.0378, "RA_OF_ASC_NODE": 276.6126, "ARG_OF_PERICENTER": 356.8251, "MEAN_ANOMALY": 120.5418, "EPHEMERIS_TYPE": 0, "CLASSIFICATION_TYPE": "U", "NORAD_CAT_ID": 33841, "ELEMENT_SET_NO": 999, "REV_AT_EPOCH": 88125, "BSTAR": 0.00038018935, "MEAN_MOTION_DOT": 1.123e-05, "MEAN_MOTION_DDOT": 0}, "tle": {"line1": "1 33841U 93036CJ  25347.51599601  .00001123  00000+0  38019-3 0  9997", "line2": "2 33841  74.0378 276.6126 0020577 356.8251 120.5418 14.37862907881253"}}, "geometry": {"type": "Point", "coordinates": [-81.44692368633352, 12.266770875803354]}}, {"type": "Feature", "properties": {"norad_id": 33842, "name": "COSMOS 2251 DEB", "group": "cosmos-2251-debris", "lat": -59.67865426200871, "lon": -172.7404456477223, "alt_km": 726.3732850051229, "timestamp": "2025-12-14T09:36:23.430901+00:00", "meta": {"OBJECT_NAME": "COSMOS 2251 DEB", "OBJECT_ID": "1993-036CK", "EPOCH": "2025-12-13T02:16:45.782976", "MEAN_MOTION": 14.42698763, "ECCENTRICITY": 0.00473045, "INCLINATION": 74.0327, "RA_OF_ASC_NODE": 218.9925, "ARG_OF_PERICENTER": 326.2458, "MEAN_ANOMALY": 33.5688, "EPHEMERIS_TYPE": 0, "CLASSIFICATION_TYPE": "U", "NORAD_CAT_ID": 33842, "ELEMENT_SET_NO": 999, "REV_AT_EPOCH": 88342, "BSTAR": 0.00043233719, "MEAN_MOTION_DOT": 1.431e-05, "MEAN_MOTION_DDOT": 0}, "tle": {"line1": "1 33842U 93036CK  25347.09497434  .00001431  00000+0  43234-3 0  9999", "line2": "2 33842  74.0327 218.9925 0047304 326.2458  33.5688 14.42698763883427"}}, "geometry": {"type": "Point", "coordinates": [-172.7404456477223, -59.67865426200871]}}, {"type": "Feature", "properties": {"norad_id": 33844, "name": "COSMOS 2251 DEB", "group": "cosmos-2251-debris", "lat": 5.792872373311348, "lon": -131.91287830586074, "alt_km": 788.3695878992949, "timestamp": "2025-12-14T09:36:23.430912+00:00", "meta": {"OBJECT_NAME": "COSMOS 2251 DEB", "OBJECT_ID": "1993-036CM", "EPOCH": "2025-12-13T14:55:25.608288", "MEAN_MOTION": 14.3371837, "ECCENTRICITY": 0.00470489, "INCLINATION": 74.067, "RA_OF_ASC_NODE": 51.1684, "ARG_OF_PERICENTER": 72.8272, "MEAN_ANOMALY": 44.255, "EPHEMERIS_TYPE": 0, "CLASSIFICATION_TYPE": "U", "NORAD_CAT_ID": 33844, "ELEMENT_SET_NO": 999, "REV_AT_EPOCH": 87738, "BSTAR": 0.00050487415, "MEAN_MOTION_DOT": 1.394e-05, "MEAN_MOTION_DDOT": 0}, "tle": {"line1": "1 33844U 93036CM  25347.62182417  .00001394  00000+0  50487-3 0  9998", "line2": "2 33844  74.0670  51.1684 0047048  72.8272  44.2550 14.33718370877384"}}, "geometry": {"type": "Point", "coordinates": [-131.91287830586074, 5.792872373311348]}}, {"type": "Feature", "properties": {"norad_id": 33848, "name": "COSMOS 2251 DEB", "group": "cosmos-2251-debris", "lat": 51.41690057908225, "lon": 15.585969678543632, "alt_km": 710.7116059369928, "timestamp": "2025-12-14T09:36:23.430922+00:00", "meta": {"OBJECT_NAME": "COSMOS 2251 DEB", "OBJECT_ID": "1993-036CR", "EPOCH": "2025-12-13T12:18:26.212896", "MEAN_MOTION": 14.44071072, "ECCENTRICITY": 0.00411489, "INCLINATION": 74.0324, "RA_OF_ASC_NODE": 356.2047, "ARG_OF_PERICENTER": 51.7888, "MEAN_ANOMALY": 70.8508, "EPHEMERIS_TYPE": 0, "CLASSIFICATION_TYPE": "U", "NORAD_CAT_ID": 33848, "ELEMENT_SET_NO": 999, "REV_AT_EPOCH": 87842, "BSTAR": 0.0016065816, "MEAN_MOTION_DOT": 5.534e-05, "MEAN_MOTION_DDOT": 0}, "tle": {"line1": "1 33848U 93036CR  25347.51280339  .00005534  00000+0  16066-2 0  9996", "line2": "2 33848  74.0324 356.2047 0041148  51.7888  70.8508 14.44071072878427"}}, "geometry": {"type": "Point", "coordinates": [15.585969678543632, 51.41690057908225]}}, {"type": "Feature", "properties": {"norad_id": 33892, "name": "COSMOS 2251 DEB", "group": "cosmos-2251-debris", "lat": -34.736663454800755, "lon": -69.34418458709052, "alt_km": 813.8096980876398, "timestamp": "2025-12-14T09:36:23.430932+00:00", "meta": {"OBJECT_NAME": "COSMOS 2251 DEB", "OBJECT_ID": "1993-036CV", "EPOCH": "2025-12-13T11:02:18.543840", "MEAN_MOTION": 14.23344177, "ECCENTRICITY": 0.01128195, "INCLINATION": 73.8026, "RA_OF_ASC_NODE": 100.7436, "ARG_OF_PERICENTER": 131.8397, "MEAN_ANOMALY": 306.7332, "EPHEMERIS_TYPE": 0, "CLASSIFICATION_TYPE": "U", "NORAD_CAT_ID": 33892, "ELEMENT_SET_NO": 999, "REV_AT_EPOCH": 86965, "BSTAR": 0.0013285528, "MEAN_MOTION_DOT": 3.191e-05, "MEAN_MOTION_DDOT": 0}, "tle": {"line1": "1 33892U 93036CV  25347.45993685  .00003191  00000+0  13286-2 0  9991", "line2": "2 33892  73.8026 100.7436 0112819 131.8397 306.7332 14.23344177869652"}}, "geometry": {"type": "Point", "coordinates": [-69.34418458709052, -34.736663454800755]}}, {"type": "Feature", "properties": {"norad_id": 33894, "name": "COSMOS 2251 DEB", "group": "cosmos-2251-debris", "lat": -50.42580608330234, "lon": -172.85134878917168, "alt_km": 809.3081042252988, "timestamp": "2025-12-14T09:36:23.430942+00:00", "meta": {"OBJECT_NAME": "COSMOS 2251 DEB", "OBJECT_ID": "1993-036CX", "EPOCH": "2025-12-13T10:34:27.336288", "MEAN_MOTION": 13.21308039, "ECCENTRICITY": 0.0579505, "INCLINATION": 73.7676, "RA_OF_ASC_NODE": 347.9951, "ARG_OF_PERICENTER": 267.3156, "MEAN_ANOMALY": 86.1509, "EPHEMERIS_TYPE": 0, "CLASSIFICATION_TYPE": "U", "NORAD_CAT_ID": 33894, "ELEMENT_SET_NO": 999, "REV_AT_EPOCH": 80717, "BSTAR": 0.0024573462, "MEAN_MOTION_DOT": 2.426e-05, "MEAN_MOTION_DDOT": 0}, "tle": {"line1": "1 33894U 93036CX  25347.44059417  .00002426  00000+0  24573-2 0  9999", "line2": "2 33894  73.7676 347.9951 0579505 267.3156  86.1509 13.21308039807176"}}, "geometry": {"type": "Point", "coordinates": [-172.85134878917168, -50.42580608330234]}}, {"type": "Feature", "properties": {"norad_id": 33896, "name": "COSMOS 2251 DEB", "group": "cosmos-2251-debris", "lat": -69.35038937875272, "lon": 24.300278237179185, "alt_km": 806.3907543956675, "timestamp": "2025-12-14T09:36:23.430952+00:00", "meta": {"OBJECT_NAME": "COSMOS 2251 DEB", "OBJECT_ID": "1993-036CZ", "EPOCH": "2025-12-13T12:20:49.115040", "MEAN_MOTION": 14.19043166, "ECCENTRICITY": 0.01264607, "INCLINATION": 73.7665, "RA_OF_ASC_NODE": 155.2765, "ARG_OF_PERICENTER": 330.8755, "MEAN_ANOMALY": 84.0652, "EPHEMERIS_TYPE": 0, "CLASSIFICATION_TYPE": "U", "NORAD_CAT_ID": 33896, "ELEMENT_SET_NO": 999, "REV_AT_EPOCH": 86751, "BSTAR": 0.0010420005, "MEAN_MOTION_DOT": 2.33e-05, "MEAN_MOTION_DDOT": 0}, "tle": {"line1": "1 33896U 93036CZ  25347.51445735  .00002330  00000+0  10420-2 0  9991", "line2": "2 33896  73.7665 155.2765 0126460 330.8755  84.0652 14.19043166867513"}}, "geometry": {"type": "Point", "coordinates": [24.300278237179185, -69.35038937875272]}}, {"type": "Feature", "properties": {"norad_id": 33899, "name": "COSMOS 2251 DEB", "group": "cosmos-2251-debris", "lat": 9.463097058670662, "lon": -100.1770248151807, "alt_km": 654.3246132189261, "timestamp": "2025-12-14T09:36:23.430962+00:00", "meta": {"OBJECT_NAME": "COSMOS 2251 DEB", "OBJECT_ID": "1993-036DC", "EPOCH": "2025-12-13T17:07:59.379744", "MEAN_MOTION": 14.61204129, "ECCENTRICITY": 0.00566269, "INCLINATION": 74.0539, "RA_OF_ASC_NODE": 83.8649, "ARG_OF_PERICENTER": 146.3653, "MEAN_ANOMALY": 14.2404, "EPHEMERIS_TYPE": 0, "CLASSIFICATION_TYPE": "U", "NORAD_CAT_ID": 33899, "ELEMENT_SET_NO": 999, "REV_AT_EPOCH": 88853, "BSTAR": 0.0011683556, "MEAN_MOTION_DOT": 5.863e-05, "MEAN_MOTION_DDOT": 0}, "tle": {"line1": "1 33899U 93036DC  25347.71388171  .00005863  00000+0  11684-2 0  9993", "line2": "2 33899  74.0539  83.8649 0056626 146.3653  14.2404 14.61204129888530"}}, "geometry": {"type": "Point", "coordinates": [-100.1770248151807, 9.463097058670662]}}, {"type": "Feature", "properties": {"norad_id": 33900, "name": "COSMOS 2251 DEB", "group": "cosmos-2251-debris", "lat": -8.287061120467238, "lon": 179.0923814834126, "alt_km": 676.7410395299157, "timestamp": "2025-12-14T09:36:23.430971+00:00", "meta": {"OBJECT_NAME": "COSMOS 2251 DEB", "OBJECT_ID": "1993-036DD", "EPOCH": "2025-12-13T12:02:39.588576", "MEAN_MOTION": 14.5835238, "ECCENTRICITY": 0.00467896, "INCLINATION": 74.0195, "RA_OF_ASC_NODE": 358.4111, "ARG_OF_PERICENTER": 150.3325, "MEAN_ANOMALY": 2.9666, "EPHEMERIS_TYPE": 0, "CLASSIFICATION_TYPE": "U", "NORAD_CAT_ID": 33900, "ELEMENT_SET_NO": 999, "REV_AT_EPOCH": 89047, "BSTAR": 0.00061985456, "MEAN_MOTION_DOT": 2.884e-05, "MEAN_MOTION_DDOT": 0}, "tle": {"line1": "1 33900U 93036DD  25347.50184709  .00002884  00000+0  61985-3 0  9994", "line2": "2 33900  74.0195 358.4111 0046789 150.3325   2.9666 14.58352380890475"}}, "geometry": {"type": "Point", "coordinates": [179.0923814834126, -8.287061120467238]}}, {"type": "Feature", "properties": {"norad_id": 33901, "name": "COSMOS 2251 DEB", "group": "cosmos-2251-debris", "lat": 25.550959637797533, "lon": -142.22120616741418, "alt_km": 496.39490059748914, "timestamp": "2025-12-14T09:36:23.430981+00:00", "meta": {"OBJECT_NAME": "COSMOS 2251 DEB", "OBJECT_ID": "1993-036DE", "EPOCH": "2025-12-13T13:55:43.391712", "MEAN_MOTION": 15.16088901, "ECCENTRICITY": 0.00316517, "INCLINATION": 73.7743, "RA_OF_ASC_NODE": 47.5165, "ARG_OF_PERICENTER": 179.4661, "MEAN_ANOMALY": 180.6572, "EPHEMERIS_TYPE": 0, "CLASSIFICATION_TYPE": "U", "NORAD_CAT_ID": 33901, "ELEMENT_SET_NO": 999, "REV_AT_EPOCH": 89526, "BSTAR": 0.0028650322, "MEAN_MOTION_DOT": 0.00056278, "MEAN_MOTION_DDOT": 0}, "tle": {"line1": "1 33901U 93036DE  25347.58036333  .00056278  00000+0  28650-2 0  9999", "line2": "2 33901  73.7743  47.5165 0031651 179.4661 180.6572 15.16088901895265"}}, "geometry": {"type": "Point", "coordinates": [-142.22120616741418, 25.550959637797533]}}]}